PAKSAT-1R               
1 37779U 11042A   26189.57834765  .00000168  00000+0  00000+0 0  9995
2 37779   0.7412  84.3937 0002889 358.9706  89.4324  1.00276899 54694
SES-2                   
1 37809U 11049A   26189.55356087 -.00000181  00000+0  00000+0 0  9996
2 37809   0.1101  92.0806 0002717  15.7737 290.9322  1.00270629 54175
ARABSAT-5C              
1 37810U 11049B   26189.50352343  .00000139  00000+0  00000+0 0  9996
2 37810   0.0468   2.5359 0003722 125.8425 359.3692  1.00275118 54252
EUTELSAT 7 WEST A       
1 37816U 11051A   26189.56924762 -.00000045  00000+0  00000+0 0  9998
2 37816   0.0682 331.8077 0004709 152.2871   0.0479  1.00272329 54092
QUETZSAT 1              
1 37826U 11054A   26189.55555421 -.00000227  00000+0  00000+0 0  9995
2 37826   0.0168 327.4397 0002737 150.5282 291.5346  1.00270048 50085
INTELSAT 18 (IS-18)     
1 37834U 11056A   26189.60392277  .00000067  00000+0  00000+0 0  9991
2 37834   0.0152   5.6247 0001756 118.6179 199.7152  1.00271577 54026
EUTELSAT 16A            
1 37836U 11057A   26189.50257009  .00000119  00000+0  00000+0 0  9994
2 37836   0.0375 358.3096 0005815 105.4594  19.5885  1.00271236  7550
VIASAT-1                
1 37843U 11059A   26189.54801418  .00000000  00000+0  00000+0 0  9996
2 37843   0.0234  25.6520 0002009  80.4987 262.5237  1.00268884 47536
ASIASAT 7               
1 37933U 11069A   26189.63384675 -.00000319  00000+0  00000+0 0  9992
2 37933   0.0172  21.6422 0000981  74.6520 163.9603  1.00267821 45077
BEIDOU-2 IGSO-5         
1 37948U 11073A   26183.72937883 -.00000128  00000+0  00000+0 0  9990
2 37948  47.6496 271.3544 0114527 222.0502 141.5350  1.00270596 53296
LUCH-5A                 
1 37951U 11074B   26189.46131655 -.00000042  00000+0  00000+0 0  9990
2 37951   8.8045  73.4951 0002581  54.9262 131.0250  1.00272597 53266
NIGCOMSAT 1R            
1 38014U 11077A   26189.57921433  .00000159  00000+0  00000+0 0  9995
2 38014   0.0321 169.1848 0002390 178.7987 189.5632  1.00273827 53172
WGS F4 (USA 233)        
1 38070U 12003A   26189.58836235  .00000000  00000+0  00000+0 0  9998
2 38070   0.0234  31.9531 0001146 123.3776  71.4156  1.00270859 44365
SES-4                   
1 38087U 12007A   26189.35255647 -.00000154  00000+0  00000+0 0  9998
2 38087   0.0201  52.9893 0002424  53.7891 284.4441  1.00269859 52433
BEIDOU-2 G5             
1 38091U 12008A   26189.15478096  .00000070  00000+0  00000+0 0  9993
2 38091   3.6226  69.5690 0007394 272.8832  58.1023  1.00268862 52573
MUOS-1                  
1 38093U 12009A   26189.55096086 -.00000117  00000+0  00000+0 0  9998
2 38093   5.5187  47.1293 0057280   3.1035 334.6544  1.00272235 52650
INTELSAT 22 (IS-22)     
1 38098U 12011A   26189.58506900  .00000000  00000+0  00000+0 0  9990
2 38098   0.0308  60.1127 0001862  70.8066  78.3227  1.00270975  7403
APSTAR-7                
1 38107U 12013A   26189.59134781 -.00000087  00000+0  00000+0 0  9994
2 38107   0.0409  91.8569 0003054  29.0843  94.9923  1.00270914 52029
YAHSAT 1B               
1 38245U 12016A   26189.58025433  .00000141  00000+0  00000+0 0  9992
2 38245   0.0894  88.7959 0003243  41.4642  52.7596  1.00270410 45822
AEHF-2 (USA 235)        
1 38254U 12019A   26189.42495995 -.00000125  00000+0  00000+0 0  9995
2 38254   6.6984  57.3308 0002197  49.0389 316.4824  1.00272738  7202
JCSAT-13                
1 38331U 12023A   26189.52405219 -.00000341  00000+0  00000+0 0  9997
2 38331   0.0140  33.0945 0002895  91.1539 114.8957  1.00271371 51756
VINASAT-2               
1 38332U 12023B   26189.59694704 -.00000314  00000+0  00000+0 0  9994
2 38332   0.0240 317.6719 0002249 155.3908 160.2350  1.00270680 46875
NIMIQ 6                 
1 38342U 12026A   26189.55278087 -.00000159  00000+0  00000+0 0  9993
2 38342   0.0224 300.5830 0002613 171.7139 282.1007  1.00270441 50622
ZHONGXING-2A            
1 38352U 12028A   26189.62415351 -.00000279  00000+0  00000+0 0  9994
2 38352   1.5065  83.6274 0001662  25.6813 140.2062  1.00273883 51519
INTELSAT 19 (IS-19)     
1 38356U 12030A   26189.59281014 -.00000042  00000+0  00000+0 0  9992
2 38356   0.0106  38.1983 0003169  81.7686 185.9889  1.00271701 50665
ECHOSTAR 17             
1 38551U 12035A   26188.90800477  .00000000  00000+0  00000+0 0  9991
2 38551   0.0253  35.8147 0001867  69.7876  40.0503  1.00269668 51272
METEOSAT-10 (MSG-3)     
1 38552U 12035B   26189.28570443  .00000005  00000+0  00000+0 0  9996
2 38552   4.7185  60.9119 0001221  19.4257 308.8365  1.00269803 51064
SES-5                   
1 38652U 12036A   26189.29628022  .00000049  00000+0  00000+0 0  9994
2 38652   0.0466 317.2363 0001928 151.7726 288.8888  1.00271613 44667
INTELSAT 20 (IS-20)     
1 38740U 12043A   26189.44177337 -.00000010  00000+0  00000+0 0  9994
2 38740   0.0098  50.7660 0001279 132.1639 330.9960  1.00274736 50969
HYLAS 2                 
1 38741U 12043B   26189.55642088 -.00000244  00000+0  00000+0 0  9996
2 38741   2.4791  80.8115 0002549  51.4088 282.0171  1.00270068 50984
INTELSAT 21 (IS-21)     
1 38749U 12045A   26189.48801001  .00000000  00000+0  00000+0 0  9999
2 38749   0.0216  20.6157 0001707 116.4720 267.0313  1.00267746 50739
ASTRA 2F                
1 38778U 12051A   26189.50482343  .00000165  00000+0  00000+0 0  9997
2 38778   0.0588 247.2850 0002751 295.2466 313.8937  1.00274412 41351
