OBJECT_NAME,OBJECT_ID,EPOCH,MEAN_MOTION,ECCENTRICITY,INCLINATION,RA_OF_ASC_NODE,ARG_OF_PERICENTER,MEAN_ANOMALY,EPHEMERIS_TYPE,CLASSIFICATION_TYPE,NORAD_CAT_ID,ELEMENT_SET_NO,REV_AT_EPOCH,BSTAR,MEAN_MOTION_DOT,MEAN_MOTION_DDOT
PAKSAT-1R,2011-042A,2026-07-08T13:52:49.236960,1.00276899,.00028896,0.7412,84.3937,358.9706,89.4324,0,U,37779,999,5469,0,.168E-5,0
SES-2,2011-049A,2026-07-08T13:17:07.659168,1.00270629,.0002717,0.1101,92.0806,15.7737,290.9322,0,U,37809,999,5417,0,-.181E-5,0
ARABSAT-5C,2011-049B,2026-07-08T12:05:04.424352,1.00275118,.00037226,0.0468,2.5359,125.8425,359.3692,0,U,37810,999,5425,0,.139E-5,0
EUTELSAT 7 WEST A,2011-051A,2026-07-08T13:39:42.994368,1.00272329,.00047095,0.0682,331.8077,152.2871,0.0479,0,U,37816,999,5409,0,-.45E-6,0
QUETZSAT 1,2011-054A,2026-07-08T13:19:59.883744,1.00270048,.00027376,0.0168,327.4397,150.5282,291.5346,0,U,37826,999,5008,0,-.227E-5,0
INTELSAT 18 (IS-18),2011-056A,2026-07-08T14:29:38.927328,1.00271577,.00017565,0.0152,5.6247,118.6179,199.7152,0,U,37834,999,5402,0,.67E-6,0
EUTELSAT 16A,2011-057A,2026-07-08T12:03:42.055776,1.00271236,.00058153,0.0375,358.3096,105.4594,19.5885,0,U,37836,999,755,0,.119E-5,0
VIASAT-1,2011-059A,2026-07-08T13:09:08.425152,1.00268884,.00020095,0.0234,25.6520,80.4987,262.5237,0,U,37843,999,4753,0,0,0
ASIASAT 7,2011-069A,2026-07-08T15:12:44.359200,1.00267821,.00009811,0.0172,21.6422,74.6520,163.9603,0,U,37933,999,4507,0,-.319E-5,0
BEIDOU-2 IGSO-5,2011-073A,2026-07-02T17:30:18.330912,1.00270596,.01145273,47.6496,271.3544,222.0502,141.5350,0,U,37948,999,5329,0,-.128E-5,0
LUCH-5A,2011-074B,2026-07-08T11:04:17.749920,1.00272597,.00025816,8.8045,73.4951,54.9262,131.0250,0,U,37951,999,5326,0,-.42E-6,0
NIGCOMSAT 1R,2011-077A,2026-07-08T13:54:04.118112,1.00273827,.00023902,0.0321,169.1848,178.7987,189.5632,0,U,38014,999,5317,0,.159E-5,0
WGS F4 (USA 233),2012-003A,2026-07-08T14:07:14.507040,1.00270859,.00011461,0.0234,31.9531,123.3776,71.4156,0,U,38070,999,4436,0,0,0
SES-4,2012-007A,2026-07-08T08:27:40.879008,1.00269859,.00024244,0.0201,52.9893,53.7891,284.4441,0,U,38087,999,5243,0,-.154E-5,0
BEIDOU-2 G5,2012-008A,2026-07-08T03:42:53.074944,1.00268862,.00073949,3.6226,69.5690,272.8832,58.1023,0,U,38091,999,5257,0,.7E-6,0
MUOS-1,2012-009A,2026-07-08T13:13:23.018304,1.00272235,.00572807,5.5187,47.1293,3.1035,334.6544,0,U,38093,999,5265,0,-.117E-5,0
INTELSAT 22 (IS-22),2012-011A,2026-07-08T14:02:29.961600,1.00270975,.00018627,0.0308,60.1127,70.8066,78.3227,0,U,38098,999,740,0,0,0
APSTAR-7,2012-013A,2026-07-08T14:11:32.450784,1.00270914,.0003054,0.0409,91.8569,29.0843,94.9923,0,U,38107,999,5202,0,-.87E-6,0
YAHSAT 1B,2012-016A,2026-07-08T13:55:33.974112,1.00270410,.00032438,0.0894,88.7959,41.4642,52.7596,0,U,38245,999,4582,0,.141E-5,0
AEHF-2 (USA 235),2012-019A,2026-07-08T10:11:56.539680,1.00272738,.00021972,6.6984,57.3308,49.0389,316.4824,0,U,38254,999,720,0,-.125E-5,0
JCSAT-13,2012-023A,2026-07-08T12:34:38.109216,1.00271371,.00028959,0.0140,33.0945,91.1539,114.8957,0,U,38331,999,5175,0,-.341E-5,0
VINASAT-2,2012-023B,2026-07-08T14:19:36.224256,1.00270680,.00022499,0.0240,317.6719,155.3908,160.2350,0,U,38332,999,4687,0,-.314E-5,0
NIMIQ 6,2012-026A,2026-07-08T13:16:00.267168,1.00270441,.00026132,0.0224,300.5830,171.7139,282.1007,0,U,38342,999,5062,0,-.159E-5,0
ZHONGXING-2A,2012-028A,2026-07-08T14:58:46.863264,1.00273883,.00016627,1.5065,83.6274,25.6813,140.2062,0,U,38352,999,5151,0,-.279E-5,0
INTELSAT 19 (IS-19),2012-030A,2026-07-08T14:13:38.796096,1.00271701,.0003169,0.0106,38.1983,81.7686,185.9889,0,U,38356,999,5066,0,-.42E-6,0
ECHOSTAR 17,2012-035A,2026-07-07T21:47:31.612128,1.00269668,.00018677,0.0253,35.8147,69.7876,40.0503,0,U,38551,999,5127,0,0,0
METEOSAT-10 (MSG-3),2012-035B,2026-07-08T06:51:24.862752,1.00269803,.00012215,4.7185,60.9119,19.4257,308.8365,0,U,38552,999,5106,0,.5E-7,0
SES-5,2012-036A,2026-07-08T07:06:38.611008,1.00271613,.00019288,0.0466,317.2363,151.7726,288.8888,0,U,38652,999,4466,0,.49E-6,0
INTELSAT 20 (IS-20),2012-043A,2026-07-08T10:36:09.219168,1.00274736,.00012796,0.0098,50.7660,132.1639,330.9960,0,U,38740,999,5096,0,-.1E-6,0
HYLAS 2,2012-043B,2026-07-08T13:21:14.764032,1.00270068,.00025495,2.4791,80.8115,51.4088,282.0171,0,U,38741,999,5098,0,-.244E-5,0
INTELSAT 21 (IS-21),2012-045A,2026-07-08T11:42:44.064864,1.00267746,.00017078,0.0216,20.6157,116.4720,267.0313,0,U,38749,999,5073,0,0,0
ASTRA 2F,2012-051A,2026-07-08T12:06:56.744352,1.00274412,.00027517,0.0588,247.2850,295.2466,313.8937,0,U,38778,999,4135,0,.165E-5,0
